{
  "type": "FeatureCollection",
  "features": [
    {
      "type": "Feature",
      "properties": {
        "norad_id": 59626,
        "name": "LEGION 2",
        "group": "resource",
        "lat": -81.77371915357898,
        "lon": 172.93581556033894,
        "alt_km": 520.776341099303,
        "timestamp": "2025-12-10T05:46:13.455247+00:00",
        "meta_object_name": "LEGION 2",
        "meta_object_id": "2024-081B",
        "meta_epoch": "2025-12-09T19:05:44.073600",
        "meta_mean_motion": 15.16446562,
        "meta_eccentricity": 0.0005825,
        "meta_inclination": 97.5214,
        "meta_ra_of_asc_node": 58.5462,
        "meta_arg_of_pericenter": 306.3664,
        "meta_mean_anomaly": 53.7031,
        "meta_ephemeris_type": 0,
        "meta_classification_type": "U",
        "meta_norad_cat_id": 59626,
        "meta_element_set_no": 999,
        "meta_rev_at_epoch": 8883,
        "meta_bstar": 0.00039018,
        "meta_mean_motion_dot": 7.527e-05,
        "meta_mean_motion_ddot": 0,
        "tle_line1": "1 59626U 24081B   25343.79564900  .00007527  00000+0  39018-3 0  9994",
        "tle_line2": "2 59626  97.5214  58.5462 0005825 306.3664  53.7031 15.16446562 88832"
      },
      "geometry": {
        "type": "Point",
        "coordinates": [
          172.93581556033894,
          -81.77371915357898
        ]
      }
    },
    {
      "type": "Feature",
      "properties": {
        "norad_id": 60182,
        "name": "ALOS-4 (DAICHI-4)",
        "group": "resource",
        "lat": -74.1614736544274,
        "lon": -130.27553024121278,
        "alt_km": 639.2244956942623,
        "timestamp": "2025-12-10T05:46:13.455257+00:00",
        "meta_object_name": "ALOS-4 (DAICHI-4)",
        "meta_object_id": "2024-123A",
        "meta_epoch": "2025-12-09T20:29:59.581248",
        "meta_mean_motion": 14.79470581,
        "meta_eccentricity": 0.0001427,
        "meta_inclination": 97.9229,
        "meta_ra_of_asc_node": 78.7424,
        "meta_arg_of_pericenter": 101.2557,
        "meta_mean_anomaly": 258.8815,
        "meta_ephemeris_type": 0,
        "meta_classification_type": "U",
        "meta_norad_cat_id": 60182,
        "meta_element_set_no": 999,
        "meta_rev_at_epoch": 7788,
        "meta_bstar": 0.00024053,
        "meta_mean_motion_dot": 1.745e-05,
        "meta_mean_motion_ddot": 0,
        "tle_line1": "1 60182U 24123A   25343.85416182  .00001745  00000+0  24053-3 0  9994",
        "tle_line2": "2 60182  97.9229  78.7424 0001427 101.2557 258.8815 14.79470581 77887"
      },
      "geometry": {
        "type": "Point",
        "coordinates": [
          -130.27553024121278,
          -74.1614736544274
        ]
      }
    },
    {
      "type": "Feature",
      "properties": {
        "norad_id": 60452,
        "name": "LEGION 3",
        "group": "resource",
        "lat": -38.241131163884845,
        "lon": -88.5216049612424,
        "alt_km": 526.2082348038948,
        "timestamp": "2025-12-10T05:46:13.455268+00:00",
        "meta_object_name": "LEGION 3",
        "meta_object_id": "2024-146A",
        "meta_epoch": "2025-12-09T18:58:02.770176",
        "meta_mean_motion": 15.15713129,
        "meta_eccentricity": 0.0014553,
        "meta_inclination": 45.0025,
        "meta_ra_of_asc_node": 325.9439,
        "meta_arg_of_pericenter": 182.7334,
        "meta_mean_anomaly": 177.3467,
        "meta_ephemeris_type": 0,
        "meta_classification_type": "U",
        "meta_norad_cat_id": 60452,
        "meta_element_set_no": 999,
        "meta_rev_at_epoch": 7328,
        "meta_bstar": 0.00043671,
        "meta_mean_motion_dot": 8.226e-05,
        "meta_mean_motion_ddot": 0,
        "tle_line1": "1 60452U 24146A   25343.79030984  .00008226  00000+0  43671-3 0  9992",
        "tle_line2": "2 60452  45.0025 325.9439 0014553 182.7334 177.3467 15.15713129 73286"
      },
      "geometry": {
        "type": "Point",
        "coordinates": [
          -88.5216049612424,
          -38.241131163884845
        ]
      }
    },
    {
      "type": "Feature",
      "properties": {
        "norad_id": 60453,
        "name": "LEGION 4",
        "group": "resource",
        "lat": -39.876570192190194,
        "lon": -1.3318825869008928,
        "alt_km": 515.3807859949393,
        "timestamp": "2025-12-10T05:46:13.455278+00:00",
        "meta_object_name": "LEGION 4",
        "meta_object_id": "2024-146B",
        "meta_epoch": "2025-12-09T15:49:13.717056",
        "meta_mean_motion": 15.15774012,
        "meta_eccentricity": 0.0009746,
        "meta_inclination": 45.0385,
        "meta_ra_of_asc_node": 58.3883,
        "meta_arg_of_pericenter": 295.1374,
        "meta_mean_anomaly": 64.8494,
        "meta_ephemeris_type": 0,
        "meta_classification_type": "U",
        "meta_norad_cat_id": 60453,
        "meta_element_set_no": 999,
        "meta_rev_at_epoch": 7211,
        "meta_bstar": 0.00042107,
        "meta_mean_motion_dot": 7.925e-05,
        "meta_mean_motion_ddot": 0,
        "tle_line1": "1 60453U 24146B   25343.65918654  .00007925  00000+0  42107-3 0  9995",
        "tle_line2": "2 60453  45.0385  58.3883 0009746 295.1374  64.8494 15.15774012 72116"
      },
      "geometry": {
        "type": "Point",
        "coordinates": [
          -1.3318825869008928,
          -39.876570192190194
        ]
      }
    },
    {
      "type": "Feature",
      "properties": {
        "norad_id": 60989,
        "name": "SENTINEL-2C",
        "group": "resource",
        "lat": 78.86538392130578,
        "lon": -73.24216733034407,
        "alt_km": 780.7879383490954,
        "timestamp": "2025-12-10T05:46:13.455291+00:00",
        "meta_object_name": "SENTINEL-2C",
        "meta_object_id": "2024-157A",
        "meta_epoch": "2025-12-09T10:51:24.113952",
        "meta_mean_motion": 14.30815888,
        "meta_eccentricity": 0.00011938,
        "meta_inclination": 98.5685,
        "meta_ra_of_asc_node": 55.9822,
        "meta_arg_of_pericenter": 97.8773,
        "meta_mean_anomaly": 262.2545,
        "meta_ephemeris_type": 0,
        "meta_classification_type": "U",
        "meta_norad_cat_id": 60989,
        "meta_element_set_no": 999,
        "meta_rev_at_epoch": 6585,
        "meta_bstar": 0.00014030741,
        "meta_mean_motion_dot": 3.24e-06,
        "meta_mean_motion_ddot": 0,
        "tle_line1": "1 60989U 24157A   25343.45236243  .00000324  00000+0  14031-3 0  9997",
        "tle_line2": "2 60989  98.5685  55.9822 0001193  97.8773 262.2545 14.30815888 65857"
      },
      "geometry": {
        "type": "Point",
        "coordinates": [
          -73.24216733034407,
          78.86538392130578
        ]
      }
    },
    {
      "type": "Feature",
      "properties": {
        "norad_id": 61735,
        "name": "IONOSFERA-M 1",
        "group": "resource",
        "lat": 73.74948766931936,
        "lon": -177.75178298556344,
        "alt_km": 808.6184672065174,
        "timestamp": "2025-12-10T05:46:13.455301+00:00",
        "meta_object_name": "IONOSFERA-M 1",
        "meta_object_id": "2024-199A",
        "meta_epoch": "2025-12-09T20:58:26.603328",
        "meta_mean_motion": 14.22713172,
        "meta_eccentricity": 0.0001096,
        "meta_inclination": 98.7412,
        "meta_ra_of_asc_node": 213.7441,
        "meta_arg_of_pericenter": 25.8037,
        "meta_mean_anomaly": 334.3195,
        "meta_ephemeris_type": 0,
        "meta_classification_type": "U",
        "meta_norad_cat_id": 61735,
        "meta_element_set_no": 999,
        "meta_rev_at_epoch": 10078,
        "meta_bstar": 8.533e-05,
        "meta_mean_motion_dot": 1.47e-06,
        "meta_mean_motion_ddot": 0,
        "tle_line1": "1 61735U 24199A   25343.87391902  .00000147  00000+0  85330-4 0  9997",
        "tle_line2": "2 61735  98.7412 213.7441 0001096  25.8037 334.3195 14.22713172100782"
      },
      "geometry": {
        "type": "Point",
        "coordinates": [
          -177.75178298556344,
          73.74948766931936
        ]
      }
    },
    {
      "type": "Feature",
      "properties": {
        "norad_id": 61736,
        "name": "IONOSFERA-M 2",
        "group": "resource",
        "lat": -75.93767854894215,
        "lon": -3.8714885729233752,
        "alt_km": 824.4253176161164,
        "timestamp": "2025-12-10T05:46:13.455311+00:00",
        "meta_object_name": "IONOSFERA-M 2",
        "meta_object_id": "2024-199B",
        "meta_epoch": "2025-12-09T21:48:20.371968",
        "meta_mean_motion": 14.22715383,
        "meta_eccentricity": 0.0001582,
        "meta_inclination": 98.7403,
        "meta_ra_of_asc_node": 213.691,
        "meta_arg_of_pericenter": 114.2499,
        "meta_mean_anomaly": 245.8844,
        "meta_ephemeris_type": 0,
        "meta_classification_type": "U",
        "meta_norad_cat_id": 61736,
        "meta_element_set_no": 999,
        "meta_rev_at_epoch": 10391,
        "meta_bstar": 8.5671e-05,
        "meta_mean_motion_dot": 1.48e-06,
        "meta_mean_motion_ddot": 0,
        "tle_line1": "1 61736U 24199B   25343.90856912  .00000148  00000+0  85671-4 0  9998",
        "tle_line2": "2 61736  98.7403 213.6910 0001582 114.2499 245.8844 14.22715383103919"
      },
      "geometry": {
        "type": "Point",
        "coordinates": [
          -3.8714885729233752,
          -75.93767854894215
        ]
      }
    }
  ]
}